start=new Date('2021-10-19T00:00:00.000Z').valueOf();
sats=[{"OBJECT_ID":"2021-041AK","REV_AT_EPOCH":"2343","RCS_SIZE":"LARGE","DECAY_DATE":null,"INCLINATION":"53.0544","APOAPSIS":"548.487","TLE_LINE1":"1 48586U 21041AK  21291.60012884  .00001182  00000-0  98263-4 0  9997","TLE_LINE2":"2 48586  53.0544 138.1630 0001818  73.5228 286.5961 15.06395350 23437","CLASSIFICATION_TYPE":"U","NORAD_CAT_ID":"48586","ELEMENT_SET_NO":"999","TIME_SYSTEM":"UTC","MEAN_ANOMALY":"286.5961","ARG_OF_PERICENTER":"73.5228","SITE":"AFETR","FILE":"3170620","GP_ID":"187538611","ECCENTRICITY":"0.00018180","MEAN_MOTION_DDOT":"0.0000000000000","MEAN_MOTION_DOT":"0.00001182","OBJECT_NAME":"STARLINK-2241","OBJECT_TYPE":"PAYLOAD","MEAN_MOTION":"15.06395350","EPHEMERIS_TYPE":"0","REF_FRAME":"TEME","PERIOD":"95.592","SEMIMAJOR_AXIS":"6925.363","EPOCH":"2021-10-18T14:24:11.131776","BSTAR":"0.00009826300000","COUNTRY_CODE":"US","LAUNCH_DATE":"2021-05-15","CENTER_NAME":"EARTH","MEAN_ELEMENT_THEORY":"SGP4","RA_OF_ASC_NODE":"138.1630","PERIAPSIS":"545.969"},{"RCS_SIZE":"LARGE","DECAY_DATE":null,"INCLINATION":"53.0536","REV_AT_EPOCH":"2342","OBJECT_ID":"2021-041AL","TLE_LINE1":"1 48587U 21041AL  21291.54021387  .00001508  00000-0  12013-3 0  9999","TLE_LINE2":"2 48587  53.0536 138.4225 0001920  79.0426 281.0779 15.06391378 23429","APOAPSIS":"548.570","NORAD_CAT_ID":"48587","CLASSIFICATION_TYPE":"U","ARG_OF_PERICENTER":"79.0426","MEAN_ANOMALY":"281.0779","TIME_SYSTEM":"UTC","ELEMENT_SET_NO":"999","ECCENTRICITY":"0.00019200","GP_ID":"187538387","MEAN_MOTION_DOT":"0.00001508","MEAN_MOTION_DDOT":"0.0000000000000","SITE":"AFETR","FILE":"3170620","MEAN_MOTION":"15.06391378","REF_FRAME":"TEME","EPHEMERIS_TYPE":"0","OBJECT_NAME":"STARLINK-2242","OBJECT_TYPE":"PAYLOAD","BSTAR":"0.00012013000000","EPOCH":"2021-10-18T12:57:54.478368","COUNTRY_CODE":"US","SEMIMAJOR_AXIS":"6925.375","PERIOD":"95.593","MEAN_ELEMENT_THEORY":"SGP4","PERIAPSIS":"545.910","RA_OF_ASC_NODE":"138.4225","LAUNCH_DATE":"2021-05-15","CENTER_NAME":"EARTH"},{"RCS_SIZE":"LARGE","DECAY_DATE":null,"INCLINATION":"53.0554","REV_AT_EPOCH":"2357","OBJECT_ID":"2021-041AM","TLE_LINE1":"1 48588U 21041AM  21291.58259371  .00000574  00000-0  57436-4 0  9991","TLE_LINE2":"2 48588  53.0554 128.2570 0001942  75.0134 285.1070 15.06400388 23573","APOAPSIS":"548.557","NORAD_CAT_ID":"48588","CLASSIFICATION_TYPE":"U","ARG_OF_PERICENTER":"75.0134","MEAN_ANOMALY":"285.1070","TIME_SYSTEM":"UTC","ELEMENT_SET_NO":"999","ECCENTRICITY":"0.00019420","GP_ID":"187538833","MEAN_MOTION_DOT":"0.00000574","MEAN_MOTION_DDOT":"0.0000000000000","SITE":"AFETR","FILE":"3170620","MEAN_MOTION":"15.06400388","REF_FRAME":"TEME","EPHEMERIS_TYPE":"0","OBJECT_NAME":"STARLINK-2244","OBJECT_TYPE":"PAYLOAD","EPOCH":"2021-10-18T13:58:56.096544","BSTAR":"0.00005743600000","COUNTRY_CODE":"US","SEMIMAJOR_AXIS":"6925.347","PERIOD":"95.592","MEAN_ELEMENT_THEORY":"SGP4","PERIAPSIS":"545.867","RA_OF_ASC_NODE":"128.2570","LAUNCH_DATE":"2021-05-15","CENTER_NAME":"EARTH"},{"TLE_LINE1":"1 48589U 21041AN  21291.24719818  .00001248  00000-0  10268-3 0  9992","TLE_LINE2":"2 48589  53.0537 129.7548 0002188  62.3277 297.7934 15.06392306 23529","APOAPSIS":"548.752","DECAY_DATE":null,"INCLINATION":"53.0537","RCS_SIZE":"LARGE","OBJECT_ID":"2021-041AN","REV_AT_EPOCH":"2352","ARG_OF_PERICENTER":"62.3277","MEAN_ANOMALY":"297.7934","ELEMENT_SET_NO":"999","TIME_SYSTEM":"UTC","NORAD_CAT_ID":"48589","CLASSIFICATION_TYPE":"U","REF_FRAME":"TEME","EPHEMERIS_TYPE":"0","MEAN_MOTION":"15.06392306","OBJECT_TYPE":"PAYLOAD","OBJECT_NAME":"STARLINK-2245","MEAN_MOTION_DOT":"0.00001248","MEAN_MOTION_DDOT":"0.0000000000000","ECCENTRICITY":"0.00021880","GP_ID":"187505384","FILE":"3170121","SITE":"AFETR","PERIAPSIS":"545.722","RA_OF_ASC_NODE":"129.7548","MEAN_ELEMENT_THEORY":"SGP4","LAUNCH_DATE":"2021-05-15","CENTER_NAME":"EARTH","BSTAR":"0.00010268000000","EPOCH":"2021-10-18T05:55:57.922752","COUNTRY_CODE":"US","PERIOD":"95.593","SEMIMAJOR_AXIS":"6925.372"},{"NORAD_CAT_ID":"48590","CLASSIFICATION_TYPE":"U","ARG_OF_PERICENTER":"75.3349","MEAN_ANOMALY":"284.7855","TIME_SYSTEM":"UTC","ELEMENT_SET_NO":"999","RCS_SIZE":"LARGE","INCLINATION":"53.0536","DECAY_DATE":null,"REV_AT_EPOCH":"2343","OBJECT_ID":"2021-041AP","TLE_LINE2":"2 48590  53.0536 138.1446 0001948  75.3349 284.7855 15.06407642 23436","TLE_LINE1":"1 48590U 21041AP  21291.60378663  .00002559  00000-0  19058-3 0  9995","APOAPSIS":"548.539","COUNTRY_CODE":"US","BSTAR":"0.00019058000000","EPOCH":"2021-10-18T14:29:27.164832","PERIOD":"95.592","SEMIMAJOR_AXIS":"6925.325","MEAN_ELEMENT_THEORY":"SGP4","PERIAPSIS":"545.841","RA_OF_ASC_NODE":"138.1446","CENTER_NAME":"EARTH","LAUNCH_DATE":"2021-05-15","ECCENTRICITY":"0.00019480","GP_ID":"187538274","MEAN_MOTION_DOT":"0.00002559","MEAN_MOTION_DDOT":"0.0000000000000","SITE":"AFETR","FILE":"3170620","MEAN_MOTION":"15.06407642","REF_FRAME":"TEME","EPHEMERIS_TYPE":"0","OBJECT_NAME":"STARLINK-2246","OBJECT_TYPE":"PAYLOAD"},{"EPHEMERIS_TYPE":"0","REF_FRAME":"TEME","MEAN_MOTION":"15.06394749","OBJECT_TYPE":"PAYLOAD","OBJECT_NAME":"STARLINK-2248","MEAN_MOTION_DOT":"0.00000906","MEAN_MOTION_DDOT":"0.0000000000000","GP_ID":"187538051","ECCENTRICITY":"0.00022070","FILE":"3170620","SITE":"AFETR","PERIAPSIS":"545.701","RA_OF_ASC_NODE":"128.2989","MEAN_ELEMENT_THEORY":"SGP4","LAUNCH_DATE":"2021-05-15","CENTER_NAME":"EARTH","BSTAR":"0.00007977100000","EPOCH":"2021-10-18T13:43:02.838432","COUNTRY_CODE":"US","PERIOD":"95.592","SEMIMAJOR_AXIS":"6925.365","TLE_LINE1":"1 48591U 21041AQ  21291.57156063  .00000906  00000-0  79771-4 0  9993","TLE_LINE2":"2 48591  53.0547 128.2989 0002207  70.5805 289.5423 15.06394749 24476","APOAPSIS":"548.758","DECAY_DATE":null,"INCLINATION":"53.0547","RCS_SIZE":"LARGE","REV_AT_EPOCH":"2447","OBJECT_ID":"2021-041AQ","ARG_OF_PERICENTER":"70.5805","MEAN_ANOMALY":"289.5423","TIME_SYSTEM":"UTC","ELEMENT_SET_NO":"999","NORAD_CAT_ID":"48591","CLASSIFICATION_TYPE":"U"},{"APOAPSIS":"548.333","TLE_LINE2":"2 48592  53.0550 138.3000 0001640  73.7840 286.3329 15.06405298 23438","TLE_LINE1":"1 48592U 21041AR  21291.57061940  .00000916  00000-0  80387-4 0  9999","OBJECT_ID":"2021-041AR","REV_AT_EPOCH":"2343","RCS_SIZE":"MEDIUM","INCLINATION":"53.0550","DECAY_DATE":null,"ELEMENT_SET_NO":"999","TIME_SYSTEM":"UTC","MEAN_ANOMALY":"286.3329","ARG_OF_PERICENTER":"73.7840","CLASSIFICATION_TYPE":"U","NORAD_CAT_ID":"48592","OBJECT_NAME":"STARLINK-2249","OBJECT_TYPE":"PAYLOAD","MEAN_MOTION":"15.06405298","REF_FRAME":"TEME","EPHEMERIS_TYPE":"0","SITE":"AFETR","FILE":"3170620","ECCENTRICITY":"0.00016400","GP_ID":"187538725","MEAN_MOTION_DDOT":"0.0000000000000","MEAN_MOTION_DOT":"0.00000916","CENTER_NAME":"EARTH","LAUNCH_DATE":"2021-05-15","MEAN_ELEMENT_THEORY":"SGP4","PERIAPSIS":"546.062","RA_OF_ASC_NODE":"138.3000","SEMIMAJOR_AXIS":"6925.332","PERIOD":"95.592","COUNTRY_CODE":"US","EPOCH":"2021-10-18T13:41:41.516160","BSTAR":"0.00008038700000"},{"APOAPSIS":"548.616","TLE_LINE1":"1 48593U 21041AS  21291.57800990  .00001071  00000-0  90826-4 0  9998","TLE_LINE2":"2 48593  53.0546 138.2609 0001999  72.0029 288.1178 15.06394071 23434","REV_AT_EPOCH":"2343","OBJECT_ID":"2021-041AS","RCS_SIZE":"LARGE","DECAY_DATE":null,"INCLINATION":"53.0546","ELEMENT_SET_NO":"999","TIME_SYSTEM":"UTC","MEAN_ANOMALY":"288.1178","ARG_OF_PERICENTER":"72.0029","CLASSIFICATION_TYPE":"U","NORAD_CAT_ID":"48593","OBJECT_NAME":"STARLINK-2250","OBJECT_TYPE":"PAYLOAD","MEAN_MOTION":"15.06394071","EPHEMERIS_TYPE":"0","REF_FRAME":"TEME","SITE":"AFETR","FILE":"3170620","ECCENTRICITY":"0.00019990","GP_ID":"187538162","MEAN_MOTION_DDOT":"0.0000000000000","MEAN_MOTION_DOT":"0.00001071","LAUNCH_DATE":"2021-05-15","CENTER_NAME":"EARTH","MEAN_ELEMENT_THEORY":"SGP4","RA_OF_ASC_NODE":"138.2609","PERIAPSIS":"545.847","PERIOD":"95.593","SEMIMAJOR_AXIS":"6925.367","BSTAR":"0.00009082600000","EPOCH":"2021-10-18T13:52:20.055360","COUNTRY_CODE":"US"},{"ECCENTRICITY":"0.00018730","GP_ID":"187538612","MEAN_MOTION_DDOT":"0.0000000000000","MEAN_MOTION_DOT":"0.00046557","SITE":"AFETR","FILE":"3170620","MEAN_MOTION":"15.09438274","EPHEMERIS_TYPE":"0","REF_FRAME":"TEME","OBJECT_NAME":"STARLINK-2251","OBJECT_TYPE":"PAYLOAD","COUNTRY_CODE":"US","EPOCH":"2021-10-18T22:00:01.999584","BSTAR":"0.00287640000000","PERIOD":"95.400","SEMIMAJOR_AXIS":"6916.052","MEAN_ELEMENT_THEORY":"SGP4","RA_OF_ASC_NODE":"106.2466","PERIAPSIS":"536.622","CENTER_NAME":"EARTH","LAUNCH_DATE":"2021-05-15","RCS_SIZE":"LARGE","INCLINATION":"53.0524","DECAY_DATE":null,"REV_AT_EPOCH":"361","OBJECT_ID":"2021-041AT","TLE_LINE2":"2 48594  53.0524 106.2466 0001873  70.6205 109.9397 15.09438274  3616","TLE_LINE1":"1 48594U 21041AT  21291.91668981  .00046557  00000-0  28764-2 0  9997","APOAPSIS":"539.213","NORAD_CAT_ID":"48594","CLASSIFICATION_TYPE":"U","ARG_OF_PERICENTER":"70.6205","MEAN_ANOMALY":"109.9397","TIME_SYSTEM":"UTC","ELEMENT_SET_NO":"999"},{"FILE":"3170620","SITE":"AFETR","MEAN_MOTION_DOT":"0.00003366","MEAN_MOTION_DDOT":"0.0000000000000","GP_ID":"187538388","ECCENTRICITY":"0.00016540","OBJECT_TYPE":"PAYLOAD","OBJECT_NAME":"STARLINK-2252","EPHEMERIS_TYPE":"0","REF_FRAME":"TEME","MEAN_MOTION":"15.06403423","SEMIMAJOR_AXIS":"6925.338","PERIOD":"95.592","EPOCH":"2021-10-18T13:25:47.361216","BSTAR":"0.00024474000000","COUNTRY_CODE":"US","LAUNCH_DATE":"2021-05-15","CENTER_NAME":"EARTH","PERIAPSIS":"546.058","RA_OF_ASC_NODE":"138.3452","MEAN_ELEMENT_THEORY":"SGP4","OBJECT_ID":"2021-041AU","REV_AT_EPOCH":"2470","DECAY_DATE":null,"INCLINATION":"53.0547","RCS_SIZE":"LARGE","APOAPSIS":"548.349","TLE_LINE1":"1 48595U 21041AU  21291.55957594  .00003366  00000-0  24474-3 0  9995","TLE_LINE2":"2 48595  53.0547 138.3452 0001654  82.2759 277.8418 15.06403423 24700","CLASSIFICATION_TYPE":"U","NORAD_CAT_ID":"48595","TIME_SYSTEM":"UTC","ELEMENT_SET_NO":"999","ARG_OF_PERICENTER":"82.2759","MEAN_ANOMALY":"277.8418"}];
